*******************************************************************************
JPL/HORIZONS               187 Lamberta (A878 GB)          2020-Jun-20 08:36:19
Rec #:     187 (+COV) Soln.date: 2020-Feb-22_15:20:15   # obs: 2773 (1902-2020)
 
IAU76/J2000 helio. ecliptic osc. elements (au, days, deg., period=Julian yrs):
 
  EPOCH=  2454618.5 ! 2008-Jun-01.00 (TDB)         Residual RMS= .26419
   EC= .2363968816622064   QR= 2.086493001794885   TP= 2454947.6016341448
   OM= 21.88741365995841   W=  195.2062818985265   IN= 10.59494859290026
   A= 2.732431222042086    MA= 288.1858120547738   ADIST= 3.378369442289287
   PER= 4.51681            N= .218212791           ANGMOM= .027629235
   DAN= 3.34214            DDN= 2.10055            L= 216.8461766
   B= -2.7642645           MOID= 1.08212996        TP= 2009-Apr-26.1016341448
 
Asteroid physical parameters (km, seconds, rotational period in hours):
   GM= n.a.                RAD= 73.647             ROTPER= 10.67
   H= 8.3                  G= .150                 B-V= .709
                           ALBEDO= .044            STYP= Ch
 
ASTEROID comments: 
1: soln ref.= JPL#90, OCC=0
2: source=ORB
*******************************************************************************
 
 
*******************************************************************************
Ephemeris / WWW_USER Sat Jun 20 08:36:19 2020 Pasadena, USA      / Horizons
*******************************************************************************
Target body name: 187 Lamberta (A878 GB)          {source: JPL#90}
Center body name: Solar System Barycenter (0)     {source: DE431}
Center-site name: BODY CENTER
*******************************************************************************
Start time      : A.D. 1969-Jun-28 00:00:00.0000 TDB
Stop  time      : A.D. 2071-May-04 00:00:00.0000 TDB
Step-size       : 7200 minutes
*******************************************************************************
Center geodetic : 0.00000000,0.00000000,0.0000000 {E-lon(deg),Lat(deg),Alt(km)}
Center cylindric: 0.00000000,0.00000000,0.0000000 {E-lon(deg),Dxy(km),Dz(km)}
Center radii    : (undefined)                                                  
Small perturbers: Yes                             {source: SB431-N16}
Output units    : AU-D
Output type     : GEOMETRIC cartesian states
Output format   : 2 (position and velocity)
Reference frame : Ecliptic of J2000.0
*******************************************************************************
Initial IAU76/J2000 heliocentric ecliptic osculating elements (au, days, deg.):
  EPOCH=  2454618.5 ! 2008-Jun-01.00 (TDB)         Residual RMS= .26419        
   EC= .2363968816622064   QR= 2.086493001794885   TP= 2454947.6016341448      
   OM= 21.88741365995841   W=  195.2062818985265   IN= 10.59494859290026       
  Equivalent ICRF heliocentric equatorial cartesian coordinates (au, au/d):
   X=-1.241832842942709E+00  Y= 1.936862890931214E+00  Z= 1.373668354363319E+00
  VX=-7.950680992267128E-03 VY=-6.154383332889187E-03 VZ=-3.387087436064040E-03
Asteroid physical parameters (km, seconds, rotational period in hours):        
   GM= n.a.                RAD= 73.647             ROTPER= 10.67               
   H= 8.3                  G= .150                 B-V= .709                   
                           ALBEDO= .044            STYP= Ch                    
*******************************************************************************
            JDTDB,            Calendar Date (TDB),        delta-T,                      X,                      Y,                      Z,                     VX,                     VY,                     VZ,
******************************************************************************************************************************************************************************************************************
$$SOE
2454680.500000000, A.D. 2008-Aug-02 00:00:00.0000,      65.183225, -1.691926477150378E+00,  1.826826136486625E+00,  4.340846889975017E-01, -6.411007033940415E-03, -9.162504428111926E-03, -1.143444709442483E-03,
2454685.500000000, A.D. 2008-Aug-07 00:00:00.0000,      65.183103, -1.723587784874269E+00,  1.780595488490257E+00,  4.282674424639540E-01, -6.252630810020328E-03, -9.329457261261113E-03, -1.183463980643267E-03,
2454690.500000000, A.D. 2008-Aug-12 00:00:00.0000,      65.182987, -1.754443886587224E+00,  1.733534675472655E+00,  4.222499688998616E-01, -6.088915520624539E-03, -9.494542920327156E-03, -1.223531380029703E-03,
2454695.500000000, A.D. 2008-Aug-17 00:00:00.0000,      65.182876, -1.784467953751673E+00,  1.685653451436038E+00,  4.160320909626302E-01, -5.919808581357129E-03, -9.657593073181057E-03, -1.263621352120035E-03,
2454700.500000000, A.D. 2008-Aug-22 00:00:00.0000,      65.182773, -1.813632905781388E+00,  1.636962428276239E+00,  4.096137626631047E-01, -5.745261833537633E-03, -9.818432886852109E-03, -1.303706904332546E-03,
2454705.500000000, A.D. 2008-Aug-27 00:00:00.0000,      65.182680, -1.841911433334919E+00,  1.587473108383037E+00,  4.029950766494011E-01, -5.565232013947305E-03, -9.976880992919736E-03, -1.343759568068476E-03,
2454710.500000000, A.D. 2008-Sep-01 00:00:00.0000,      65.182598, -1.869276024014607E+00,  1.537197917353318E+00,  3.961762716786348E-01, -5.379681247276153E-03, -1.013274947750381E-02, -1.383749362558739E-03,
2454715.500000000, A.D. 2008-Sep-06 00:00:00.0000,      65.182526, -1.895698990584028E+00,  1.486150236686574E+00,  3.891577402614425E-01, -5.188577560978625E-03, -1.028584389881395E-02, -1.423644761983284E-03,
2454720.500000000, A.D. 2008-Sep-11 00:00:00.0000,      65.182463, -1.921152501814589E+00,  1.434344436317729E+00,  3.819400364616428E-01, -4.991895421954818E-03, -1.043596333516832E-02, -1.463412666388558E-03,
2454725.500000000, A.D. 2008-Sep-16 00:00:00.0000,      65.182410, -1.945608616068235E+00,  1.381795906827476E+00,  3.745238838306334E-01, -4.789616294128821E-03, -1.058290046646723E-02, -1.503018376972933E-03,
2454730.500000000, A.D. 2008-Sep-21 00:00:00.0000,      65.182368, -1.969039317717696E+00,  1.328521091155225E+00,  3.669101834531688E-01, -4.581729215643351E-03, -1.072644169220441E-02, -1.542425576356736E-03,
2454735.500000000, A.D. 2008-Sep-26 00:00:00.0000,      65.182340, -1.991416556498396E+00,  1.274537515624058E+00,  3.591000220779581E-01, -4.368231394023103E-03, -1.086636728918085E-02, -1.581596314497000E-03,
2454740.500000000, A.D. 2008-Oct-01 00:00:00.0000,      65.182325, -2.012712289876936E+00,  1.219863820071156E+00,  3.510946803031275E-01, -4.149128817266930E-03, -1.100245161214320E-02, -1.620491000946767E-03,
2454745.500000000, A.D. 2008-Oct-06 00:00:00.0000,      65.182322, -2.032898528509812E+00,  1.164519786860954E+00,  3.428956407829977E-01, -3.924436878401313E-03, -1.113446334060053E-02, -1.659068404195331E-03,
2454750.500000000, A.D. 2008-Oct-11 00:00:00.0000,      65.182330, -2.051947384852577E+00,  1.108526368541949E+00,  3.345045964188635E-01, -3.694181010580038E-03, -1.126216577509038E-02, -1.697285658857762E-03,
2454755.500000000, A.D. 2008-Oct-16 00:00:00.0000,      65.182349, -2.069831124964034E+00,  1.051905713891746E+00,  3.259234584925665E-01, -3.458397329431035E-03, -1.138531718615703E-02, -1.735098281497449E-03,
2454760.500000000, A.D. 2008-Oct-21 00:00:00.0000,      65.182381, -2.086522223533132E+00,  9.946811920789033E-01,  3.171543646977981E-01, -3.217133279211717E-03, -1.150367121913143E-02, -1.772460195829545E-03,
2454765.500000000, A.D. 2008-Oct-26 00:00:00.0000,      65.182427, -2.101993422138729E+00,  9.368774146560751E-01,  3.081996870205151E-01, -2.970448279132571E-03, -1.161697735717233E-02, -1.809323767985202E-03,
2454770.500000000, A.D. 2008-Oct-31 00:00:00.0000,      65.182485, -2.116217790731339E+00,  8.785202550883798E-01,  2.990620394163310E-01, -2.718414364785120E-03, -1.172498144446135E-02, -1.845639852607448E-03,
2454775.500000000, A.D. 2008-Nov-05 00:00:00.0000,      65.182554, -2.129168792295307E+00,  8.196368655103223E-01,  2.897442852282541E-01, -2.461116817671795E-03, -1.182742627212810E-02, -1.881357850793855E-03,
2454780.500000000, A.D. 2008-Nov-10 00:00:00.0000,      65.182633, -2.140820350615337E+00,  7.602556903891686E-01,  2.802495442831228E-01, -2.198654776565812E-03, -1.192405223024440E-02, -1.916425780791113E-03,
2454785.500000000, A.D. 2008-Nov-15 00:00:00.0000,      65.182721, -2.151146921044707E+00,  7.004064767589160E-01,  2.705811996015852E-01, -1.931141826038968E-03, -1.201459802768583E-02, -1.950790361944448E-03,
2454790.500000000, A.D. 2008-Nov-20 00:00:00.0000,      65.182819, -2.160123564147431E+00,  6.401202806852909E-01,  2.607429036543277E-01, -1.658706556351730E-03, -1.209880147979320E-02, -1.984397112337661E-03,
2454795.500000000, A.D. 2008-Nov-25 00:00:00.0000,      65.182929, -2.167726022052376E+00,  5.794294696235538E-01,  2.507385840946647E-01, -1.381493086967722E-03, -1.217640036356720E-02, -2.017190460710434E-03,
2454800.500000000, A.D. 2008-Nov-30 00:00:00.0000,      65.183047, -2.173930797316769E+00,  5.183677203318329E-01,  2.405724488946448E-01, -1.099661545427891E-03, -1.224713334019520E-02, -2.049113873215940E-03,
2454805.500000000, A.D. 2008-Dec-05 00:00:00.0000,      65.183171, -2.178715234055473E+00,  4.569700120050848E-01,  2.302489908094006E-01, -8.133884934289936E-04, -1.231074094404690E-02, -2.080109995418351E-03,
2454810.500000000, A.D. 2008-Dec-10 00:00:00.0000,      65.183301, -2.182057601051627E+00,  3.952726143016062E-01,  2.197729910929023E-01, -5.228672919128267E-04, -1.236696663625729E-02, -2.110120809757293E-03,
2454815.500000000, A.D. 2008-Dec-15 00:00:00.0000,      65.183435, -2.183937176522897E+00,  3.333130699460433E-01,  2.091495223875493E-01, -2.283083968146744E-04, -1.241555791997090E-02, -2.139087808546611E-03,
